NORAD_CAT_ID,OBJECT_NAME,OBJECT_TYPE,EPOCH,MEAN_MOTION,ECCENTRICITY,INCLINATION,RA_OF_ASC_NODE,ARG_OF_PERICENTER,MEAN_ANOMALY,BSTAR,MEAN_MOTION_DOT,MEAN_MOTION_DDOT,TLE_LINE0,TLE_LINE1,TLE_LINE2,SEMIMAJOR_AXIS,PERIOD,APOGEE,PERIGEE,DECAYED
50837.0,STARLINK-3318,PAYLOAD,2022-09-11 03:31:48,15.08847982,0.0001786,53.2181,135.2687,61.3452,298.772,0.00019073,2.749e-05,0.0,0 STARLINK-3318,1 50837U 22001AL  22254.14708996  .00002749  00000-0  19073-3 0  9992,2 50837  53.2181 135.2687 0001786  61.3452 298.7720 15.08847982 39043,6917.856,95.437,540.957,538.485,0.0
50837.0,STARLINK-3318,PAYLOAD,2022-09-11 19:25:40,15.08841735,0.0001749,53.2169,132.2954,61.5332,298.5836,0.00010428,1.372e-05,0.0,0 STARLINK-3318,1 50837U 22001AL  22254.80949258  .00001372  00000-0  10428-3 0  9999,2 50837  53.2169 132.2954 0001749  61.5332 298.5836 15.08841735 39148,6917.875,95.437,540.95,538.53,0.0
50837.0,STARLINK-3318,PAYLOAD,2022-09-11 21:01:03,15.08845007,0.0001709,53.2177,131.9976,60.497,299.6192,0.00016055,2.268e-05,0.0,0 STARLINK-3318,1 50837U 22001AL  22254.87573060  .00002268  00000-0  16055-3 0  9997,2 50837  53.2177 131.9976 0001709  60.4970 299.6192 15.08845007 37959,6917.865,95.437,540.9119999999998,538.548,0.0
50837.0,STARLINK-3318,PAYLOAD,2022-09-12 01:47:12,15.08836332,0.0001804,53.218,131.1052,60.1162,300.001,-1.6863e-05,-5.56e-06,0.0,0 STARLINK-3318,1 50837U 22001AL  22255.07445498 -.00000556  00000-0 -16863-4 0  9991,2 50837  53.2180 131.1052 0001804  60.1162 300.0010 15.08836332 39180,6917.892,95.438,541.005,538.509,0.0
50837.0,STARLINK-3318,PAYLOAD,2022-09-12 19:16:27,15.08841182,0.0001662,53.2186,127.8344,59.0516,301.064,4.3362e-05,4.02e-06,0.0,0 STARLINK-3318,1 50837U 22001AL  22255.80309508  .00000402  00000-0  43362-4 0  9995,2 50837  53.2186 127.8344 0001662  59.0516 301.0640 15.08841182 38092,6917.877,95.437,540.8919999999998,538.592,0.0
50837.0,STARLINK-3318,PAYLOAD,2022-09-13 03:13:23,15.08838946,0.0001563,53.2175,126.3477,57.4562,302.658,2.8604e-06,-2.42e-06,0.0,0 STARLINK-3318,1 50837U 22001AL  22256.13429496 -.00000242  00000-0  28604-5 0  9997,2 50837  53.2175 126.3477 0001563  57.4562 302.6580 15.08838946 39347,6917.884,95.438,540.83,538.6669999999998,0.0
50837.0,STARLINK-3318,PAYLOAD,2022-09-13 07:59:32,15.08841895,0.0001595999999999,53.2175,125.456,58.1801,301.9346,4.947e-05,4.99e-06,0.0,0 STARLINK-3318,1 50837U 22001AL  22256.33301369  .00000499  00000-0  49470-4 0  9993,2 50837  53.2175 125.4560 0001596  58.1801 301.9346 15.08841895 38179,6917.875,95.437,540.844,538.636,0.0
50837.0,STARLINK-3318,PAYLOAD,2022-09-13 20:42:37,15.08835587,0.0001516,53.2173,123.0768,58.2774,301.8366,-5.2012e-05,-1.116e-05,0.0,0 STARLINK-3318,1 50837U 22001AL  22256.86293737 -.00001116  00000-0 -52012-4 0  9995,2 50837  53.2173 123.0768 0001516  58.2774 301.8366 15.08835587 38254,6917.894,95.438,540.808,538.71,0.0
50837.0,STARLINK-3318,PAYLOAD,2022-09-14 07:50:20,15.08826373,0.0001604,53.2183,120.9954,58.6012,301.5137,0.00029125,4.349e-05,0.0,0 STARLINK-3318,1 50837U 22001AL  22257.32662293  .00004349  00000-0  29125-3 0  9991,2 50837  53.2183 120.9954 0001604  58.6012 301.5137 15.08826373 38329,6917.922,95.438,540.8969999999998,538.677,0.0
50837.0,STARLINK-3318,PAYLOAD,2022-09-14 15:47:16,15.08828988,0.0001686,53.2179,119.5087,57.3746,302.7409,6.271199999999999e-05,7.1e-06,0.0,0 STARLINK-3318,1 50837U 22001AL  22257.65782647  .00000710  00000-0  62712-4 0  9991,2 50837  53.2179 119.5087 0001686  57.3746 302.7409 15.08828988 38379,6917.9140000000025,95.438,540.945,538.613,0.0
50837.0,STARLINK-3318,PAYLOAD,2022-09-14 23:44:12,15.08829508,0.0001719,53.2179,118.022,56.3344,303.7811,5.5292e-05,5.92e-06,0.0,0 STARLINK-3318,1 50837U 22001AL  22257.98902880  .00000592  00000-0  55292-4 0  9993,2 50837  53.2179 118.0220 0001719  56.3344 303.7811 15.08829508 38425,6917.9119999999975,95.438,540.967,538.5880000000002,0.0
50837.0,STARLINK-3318,PAYLOAD,2022-09-15 21:59:35,15.08840453,0.0001681,53.2189,113.8589,59.6564,300.4595,0.00016758,2.380000000000001e-05,0.0,0 STARLINK-3318,1 50837U 22001AL  22258.91638185  .00002380  00000-0  16758-3 0  9991,2 50837  53.2189 113.8589 0001681  59.6564 300.4595 15.08840453 39768,6917.879,95.438,540.9069999999998,538.581,0.0
50837.0,STARLINK-3318,PAYLOAD,2022-09-16 13:53:27,15.08840298,0.0001679,53.2188,110.885,59.6179,300.4979,8.696e-05,1.096e-05,0.0,0 STARLINK-3318,1 50837U 22001AL  22259.57878629  .00001096  00000-0  86960-4 0  9999,2 50837  53.2188 110.8850 0001679  59.6179 300.4979 15.08840298 38665,6917.879,95.438,540.906,538.5830000000002,0.0
50837.0,STARLINK-3318,PAYLOAD,2022-09-16 20:14:59,15.08836468,0.0001744,53.2193,109.6958,60.2846,299.832,0.00014394,2.003e-05,0.0,0 STARLINK-3318,1 50837U 22001AL  22259.84374884  .00002003  00000-0  14394-3 0  9993,2 50837  53.2193 109.6958 0001744  60.2846 299.8320 15.08836468 38708,6917.891,95.438,540.9630000000002,538.55,0.0
50837.0,STARLINK-3318,PAYLOAD,2022-09-17 07:22:42,15.0883312,0.0001696999999999,53.2188,107.6147,58.9785,301.1374,1.6258000000000004e-06,-2.62e-06,0.0,0 STARLINK-3318,1 50837U 22001AL  22260.30743548 -.00000262  00000-0  16258-5 0  9992,2 50837  53.2188 107.6147 0001697  58.9785 301.1374 15.08833120 39971,6917.901,95.438,540.94,538.592,0.0
50837.0,STARLINK-3318,PAYLOAD,2022-09-17 20:05:47,15.08838174,0.0001746,53.2186,105.2355,60.2138,299.9028,9.149e-05,1.168e-05,0.0,0 STARLINK-3318,1 50837U 22001AL  22260.83735095  .00001168  00000-0  91490-4 0  9993,2 50837  53.2186 105.2355 0001746  60.2138 299.9028 15.08838174 40052,6917.886,95.438,540.9590000000002,538.543,0.0
50837.0,STARLINK-3318,PAYLOAD,2022-09-18 19:56:33,15.08846102,0.0001808,53.2189,100.7761,56.5039,303.6126,0.00018811,2.707e-05,0.0,0 STARLINK-3318,1 50837U 22001AL  22261.83094392  .00002707  00000-0  18811-3 0  9997,2 50837  53.2189 100.7761 0001808  56.5039 303.6126 15.08846102 39008,6917.861999999999,95.437,540.977,538.476,0.0
50837.0,STARLINK-3318,PAYLOAD,2022-09-18 23:07:20,15.08837976,0.000188,53.2184,100.1806,56.0217,304.0953,0.00011976,1.618e-05,0.0,0 STARLINK-3318,1 50837U 22001AL  22261.96343130  .00001618  00000-0  11976-3 0  9993,2 50837  53.2184 100.1806 0001880  56.0217 304.0953 15.08837976 40228,6917.887,95.438,541.052,538.451,0.0
50837.0,STARLINK-3318,PAYLOAD,2022-09-19 13:25:48,15.08841197,0.0001969,53.2182,97.5038,55.02,305.0977,0.00014707,2.053e-05,0.0,0 STARLINK-3318,1 50837U 22001AL  22262.55958968  .00002053  00000-0  14707-3 0  9999,2 50837  53.2182  97.5038 0001969  55.0200 305.0977 15.08841197 39114,6917.877,95.437,541.104,538.38,0.0
50837.0,STARLINK-3318,PAYLOAD,2022-09-19 15:01:11,15.08842693,0.0001872,53.2186,97.2076,55.4585,304.6583,0.00016643,2.362e-05,0.0,0 STARLINK-3318,1 50837U 22001AL  22262.62582751  .00002362  00000-0  16643-3 0  9994,2 50837  53.2186  97.2076 0001872  55.4585 304.6583 15.08842693 39121,6917.871999999999,95.437,541.0319999999998,538.442,0.0
50837.0,STARLINK-3318,PAYLOAD,2022-09-20 13:16:35,15.08840586,0.0001863,53.2175,93.0437,55.304,304.8127,-7.1667e-05,-1.429e-05,0.0,0 STARLINK-3318,1 50837U 22001AL  22263.55318939 -.00001429  00000-0 -71667-4 0  9995,2 50837  53.2175  93.0437 0001863  55.3040 304.8127 15.08840586 40463,6917.879,95.438,541.0319999999998,538.455,0.0
50837.0,STARLINK-3318,PAYLOAD,2022-09-21 14:42:46,15.08838456,0.0001853,53.2184,88.2862,58.9647,301.1527,9.1853e-06,-1.42e-06,0.0,0 STARLINK-3318,1 50837U 22001AL  22264.61303290 -.00000142  00000-0  91853-5 0  9997,2 50837  53.2184  88.2862 0001853  58.9647 301.1527 15.08838456 39423,6917.885,95.438,541.0319999999998,538.4680000000002,0.0
50837.0,STARLINK-3318,PAYLOAD,2022-09-22 19:19:41,15.08848831,0.0001433,53.2192,82.9329,61.5852,298.5284,0.0001198,1.62e-05,0.0,0 STARLINK-3318,1 50837U 22001AL  22265.80534574  .00001620  00000-0  11980-3 0  9992,2 50837  53.2192  82.9329 0001433  61.5852 298.5284 15.08848831 39600,6917.853,95.437,540.71,538.727,0.0
50837.0,STARLINK-3318,PAYLOAD,2022-09-23 00:05:51,15.08846883,0.0001595999999999,53.2197,82.0406,59.7513,300.3636,0.00010619,1.403e-05,0.0,0 STARLINK-3318,1 50837U 22001AL  22266.00406676  .00001403  00000-0  10619-3 0  9993,2 50837  53.2197  82.0406 0001596  59.7513 300.3636 15.08846883 39636,6917.859,95.437,540.828,538.62,0.0
50837.0,STARLINK-3318,PAYLOAD,2022-09-23 19:10:29,15.08837867,0.0001333,53.2192,78.472,62.5746,297.5381,8.711899999999999e-05,1.099e-05,0.0,0 STARLINK-3318,1 50837U 22001AL  22266.79895338  .00001099  00000-0  87119-4 0  9997,2 50837  53.2192  78.4720 0001333  62.5746 297.5381 15.08837867 39757,6917.887,95.438,540.674,538.83,0.0
50837.0,STARLINK-3318,PAYLOAD,2022-09-24 04:42:48,15.08840642,0.0001355,53.2194,76.6887,68.2729,291.8407,7.1667e-05,8.53e-06,0.0,0 STARLINK-3318,1 50837U 22001AL  22267.19639270  .00000853  00000-0  71667-4 0  9991,2 50837  53.2194  76.6887 0001355  68.2729 291.8407 15.08840642 39819,6917.878000000002,95.438,540.681,538.806,0.0
50837.0,STARLINK-3318,PAYLOAD,2022-09-24 17:25:52,15.08849953,0.0001501999999999,53.2191,74.3097,58.9141,301.1998,0.00011558,1.552e-05,0.0,0 STARLINK-3318,1 50837U 22001AL  22267.72630528  .00001552  00000-0  11558-3 0  9996,2 50837  53.2191  74.3097 0001502  58.9141 301.1998 15.08849953 41099,6917.85,95.437,540.754,538.6759999999998,0.0
50837.0,STARLINK-3318,PAYLOAD,2022-09-25 04:33:34,15.08851747,0.0001494,53.2194,72.2281,58.8261,301.2877,5.722e-05,6.23e-06,0.0,0 STARLINK-3318,1 50837U 22001AL  22268.18998324  .00000623  00000-0  57220-4 0  9993,2 50837  53.2194  72.2281 0001494  58.8261 301.2877 15.08851747 39960,6917.844,95.437,540.743,538.6759999999998,0.0
50837.0,STARLINK-3318,PAYLOAD,2022-09-25 17:16:39,15.08844431,0.0001523,53.2192,69.8491,57.9718,302.1422,0.0001228,1.667e-05,0.0,0 STARLINK-3318,1 50837U 22001AL  22268.71990572  .00001667  00000-0  12280-3 0  9994,2 50837  53.2192  69.8491 0001523  57.9718 302.1422 15.08844431 40042,6917.8669999999975,95.437,540.785,538.678,0.0
